{
  "type": "FeatureCollection",
  "features": [
    {
      "type": "Feature",
      "properties": {
        "norad_id": 46435,
        "name": "IRIDIUM 33 DEB",
        "group": "iridium-33-debris",
        "lat": 63.50267104002024,
        "lon": -154.29418100243373,
        "alt_km": 844.1415412119286,
        "timestamp": "2025-12-02T19:35:50.940606+00:00",
        "meta_object_name": "IRIDIUM 33 DEB",
        "meta_object_id": "1997-051ABN",
        "meta_epoch": "2025-12-01T21:34:01.840224",
        "meta_mean_motion": 14.31281633,
        "meta_eccentricity": 0.02132677,
        "meta_inclination": 86.2832,
        "meta_ra_of_asc_node": 198.6078,
        "meta_arg_of_pericenter": 311.3277,
        "meta_mean_anomaly": 63.4086,
        "meta_ephemeris_type": 0,
        "meta_classification_type": "U",
        "meta_norad_cat_id": 46435,
        "meta_element_set_no": 999,
        "meta_rev_at_epoch": 7761,
        "meta_bstar": 0.0078564893,
        "meta_mean_motion_dot": 0.00026766,
        "meta_mean_motion_ddot": 0,
        "tle_line1": "1 46435U 97051ABN 25335.89863241  .00026766  00000+0  78565-2 0  9992",
        "tle_line2": "2 46435  86.2832 198.6078 0213267 311.3277  63.4086 14.31281633 77617"
      },
      "geometry": {
        "type": "Point",
        "coordinates": [
          -154.29418100243373,
          63.50267104002024
        ]
      }
    },
    {
      "type": "Feature",
      "properties": {
        "norad_id": 46734,
        "name": "IRIDIUM 33 DEB",
        "group": "iridium-33-debris",
        "lat": -76.31163580029681,
        "lon": -157.220869782931,
        "alt_km": 770.5453619977925,
        "timestamp": "2025-12-02T19:35:50.940616+00:00",
        "meta_object_name": "IRIDIUM 33 DEB",
        "meta_object_id": "1997-051ABR",
        "meta_epoch": "2025-12-02T08:29:47.143104",
        "meta_mean_motion": 14.41781763,
        "meta_eccentricity": 0.0039609,
        "meta_inclination": 86.2647,
        "meta_ra_of_asc_node": 7.4234,
        "meta_arg_of_pericenter": 10.3878,
        "meta_mean_anomaly": 7.5536,
        "meta_ephemeris_type": 0,
        "meta_classification_type": "U",
        "meta_norad_cat_id": 46734,
        "meta_element_set_no": 999,
        "meta_rev_at_epoch": 62861,
        "meta_bstar": 0.0011871,
        "meta_mean_motion_dot": 3.931e-05,
        "meta_mean_motion_ddot": 0,
        "tle_line1": "1 46734U 97051ABR 25336.35401786  .00003931  00000+0  11871-2 0  9994",
        "tle_line2": "2 46734  86.2647   7.4234 0039609  10.3878   7.5536 14.41781763628614"
      },
      "geometry": {
        "type": "Point",
        "coordinates": [
          -157.220869782931,
          -76.31163580029681
        ]
      }
    },
    {
      "type": "Feature",
      "properties": {
        "norad_id": 46965,
        "name": "IRIDIUM 33 DEB",
        "group": "iridium-33-debris",
        "lat": 80.59157541627013,
        "lon": 142.34688212676198,
        "alt_km": 685.6089030717076,
        "timestamp": "2025-12-02T19:35:50.940627+00:00",
        "meta_object_name": "IRIDIUM 33 DEB",
        "meta_object_id": "1997-051ABX",
        "meta_epoch": "2025-12-01T19:17:57.587136",
        "meta_mean_motion": 14.60159185,
        "meta_eccentricity": 0.00196274,
        "meta_inclination": 86.3356,
        "meta_ra_of_asc_node": 345.5484,
        "meta_arg_of_pericenter": 10.7692,
        "meta_mean_anomaly": 169.2127,
        "meta_ephemeris_type": 0,
        "meta_classification_type": "U",
        "meta_norad_cat_id": 46965,
        "meta_element_set_no": 999,
        "meta_rev_at_epoch": 62108,
        "meta_bstar": 0.00078040871,
        "meta_mean_motion_dot": 3.788e-05,
        "meta_mean_motion_ddot": 0,
        "tle_line1": "1 46965U 97051ABX 25335.80413874  .00003788  00000+0  78041-3 0  9993",
        "tle_line2": "2 46965  86.3356 345.5484 0019627  10.7692 169.2127 14.60159185621081"
      },
      "geometry": {
        "type": "Point",
        "coordinates": [
          142.34688212676198,
          80.59157541627013
        ]
      }
    },
    {
      "type": "Feature",
      "properties": {
        "norad_id": 46971,
        "name": "IRIDIUM 33 DEB",
        "group": "iridium-33-debris",
        "lat": -71.58435900276548,
        "lon": -33.308647508154465,
        "alt_km": 582.1006587073798,
        "timestamp": "2025-12-02T19:35:50.940637+00:00",
        "meta_object_name": "IRIDIUM 33 DEB",
        "meta_object_id": "1997-051ACD",
        "meta_epoch": "2025-11-30T18:57:44.502624",
        "meta_mean_motion": 14.96904917,
        "meta_eccentricity": 0.00065248,
        "meta_inclination": 86.3392,
        "meta_ra_of_asc_node": 338.7285,
        "meta_arg_of_pericenter": 8.9727,
        "meta_mean_anomaly": 165.6369,
        "meta_ephemeris_type": 0,
        "meta_classification_type": "U",
        "meta_norad_cat_id": 46971,
        "meta_element_set_no": 999,
        "meta_rev_at_epoch": 64051,
        "meta_bstar": 0.0032009998,
        "meta_mean_motion_dot": 0.00036919,
        "meta_mean_motion_ddot": 0,
        "tle_line1": "1 46971U 97051ACD 25334.79009841  .00036919  00000+0  32010-2 0  9999",
        "tle_line2": "2 46971  86.3392 338.7285 0006524   8.9727 165.6369 14.96904917640518"
      },
      "geometry": {
        "type": "Point",
        "coordinates": [
          -33.308647508154465,
          -71.58435900276548
        ]
      }
    },
    {
      "type": "Feature",
      "properties": {
        "norad_id": 46974,
        "name": "IRIDIUM 33 DEB",
        "group": "iridium-33-debris",
        "lat": 28.619954019441938,
        "lon": 111.62786661476987,
        "alt_km": 811.7248170592529,
        "timestamp": "2025-12-02T19:35:50.940649+00:00",
        "meta_object_name": "IRIDIUM 33 DEB",
        "meta_object_id": "1997-051ACG",
        "meta_epoch": "2025-11-30T02:35:30.463008",
        "meta_mean_motion": 14.43749529,
        "meta_eccentricity": 0.00958857,
        "meta_inclination": 86.2984,
        "meta_ra_of_asc_node": 110.7848,
        "meta_arg_of_pericenter": 228.1133,
        "meta_mean_anomaly": 131.1861,
        "meta_ephemeris_type": 0,
        "meta_classification_type": "U",
        "meta_norad_cat_id": 46974,
        "meta_element_set_no": 999,
        "meta_rev_at_epoch": 57326,
        "meta_bstar": 0.0048958995,
        "meta_mean_motion_dot": 0.00017648,
        "meta_mean_motion_ddot": 0,
        "tle_line1": "1 46974U 97051ACG 25334.10799147  .00017648  00000+0  48959-2 0  9999",
        "tle_line2": "2 46974  86.2984 110.7848 0095885 228.1133 131.1861 14.43749529573265"
      },
      "geometry": {
        "type": "Point",
        "coordinates": [
          111.62786661476987,
          28.619954019441938
        ]
      }
    },
    {
      "type": "Feature",
      "properties": {
        "norad_id": 46979,
        "name": "IRIDIUM 33 DEB",
        "group": "iridium-33-debris",
        "lat": -60.784393539380154,
        "lon": -120.26058934278659,
        "alt_km": 591.6608435433272,
        "timestamp": "2025-12-02T19:35:50.940659+00:00",
        "meta_object_name": "IRIDIUM 33 DEB",
        "meta_object_id": "1997-051ACM",
        "meta_epoch": "2025-12-01T11:51:13.074912",
        "meta_mean_motion": 14.88074464,
        "meta_eccentricity": 0.00285955,
        "meta_inclination": 86.3339,
        "meta_ra_of_asc_node": 53.769,
        "meta_arg_of_pericenter": 262.5043,
        "meta_mean_anomaly": 97.2933,
        "meta_ephemeris_type": 0,
        "meta_classification_type": "U",
        "meta_norad_cat_id": 46979,
        "meta_element_set_no": 999,
        "meta_rev_at_epoch": 35261,
        "meta_bstar": 0.0059304432,
        "meta_mean_motion_dot": 0.00055309,
        "meta_mean_motion_ddot": 0,
        "tle_line1": "1 46979U 97051ACM 25335.49390133  .00055309  00000+0  59304-2 0  9991",
        "tle_line2": "2 46979  86.3339  53.7690 0028595 262.5043  97.2933 14.88074464352616"
      },
      "geometry": {
        "type": "Point",
        "coordinates": [
          -120.26058934278659,
          -60.784393539380154
        ]
      }
    }
  ]
}